ONEWEB-0328             
1 49197U 21083M   25299.66091010  .00000022  00000+0  25632-4 0  9999
2 49197  87.9040   6.6106 0001898  95.9746 264.1599 13.13467847200243
ONEWEB-0331             
1 49198U 21083N   25299.67533728  .00000007  00000+0 -15768-4 0  9991
2 49198  87.9227  21.8219 0001649  90.3689 269.7632 13.18685022199231
ONEWEB-0333             
1 49199U 21083P   25299.73201308  .00000120  00000+0  29346-3 0  9996
2 49199  87.9021   6.6573 0001794 103.0301 257.1029 13.13470402200268
ONEWEB-0334             
1 49200U 21083Q   25299.81163127  .00000032  00000+0  46154-4 0  9993
2 49200  87.9191 321.0078 0002355 118.2913 241.8458 13.20770621205988
ONEWEB-0335             
1 49201U 21083R   25299.72693171  .00000251  00000+0  65367-3 0  9990
2 49201  87.9024   6.6461 0001675  95.0594 265.0726 13.13470996200274
ONEWEB-0336             
1 49202U 21083S   25299.62197980  .00000054  00000+0  11200-3 0  9995
2 49202  87.9023   6.6616 0001670  87.0415 273.0905 13.13471326200258
ONEWEB-0337             
1 49203U 21083T   25299.63199975  .00000226  00000+0  58403-3 0  9990
2 49203  87.9035   6.6684 0001899  94.0348 266.0999 13.13471527200251
ONEWEB-0338             
1 49204U 21083U   25299.78637472  .00000050  00000+0  90733-4 0  9994
2 49204  87.9196 321.0140 0002017 101.4136 258.7224 13.20772303206004
ONEWEB-0339             
1 49205U 21083V   25299.71678117  .00000276  00000+0  72182-3 0  9996
2 49205  87.9031   6.6342 0001987 100.8055 259.3298 13.13469033200244
ONEWEB-0340             
1 49206U 21083W   25299.73801941  .00000058  00000+0  11526-3 0  9995
2 49206  87.9227  21.8137 0001739  99.1628 260.9701 13.18686164199205
ONEWEB-0341             
1 49207U 21083X   25299.74461443  .00000034  00000+0  53647-4 0  9991
2 49207  87.9225  21.8247 0002180  90.3091 269.8291 13.18686112199221
ONEWEB-0342             
1 49208U 21083Y   25299.79268971  .00000103  00000+0  22067-3 0  9996
2 49208  87.9202 320.9810 0001937  96.8381 263.2973 13.20771025205974
ONEWEB-0343             
1 49209U 21083Z   25299.75281025 -.00000228  00000+0 -61067-3 0  9991
2 49209  87.9227  21.8143 0002354  99.5408 260.5990 13.18682017199275
ONEWEB-0344             
1 49210U 21083AA  25299.71170111  .00000303  00000+0  79437-3 0  9994
2 49210  87.9025   6.6708 0002064  89.9249 270.2117 13.13469306200243
ONEWEB-0345             
1 49211U 21083AB  25299.62705194  .00000153  00000+0  38325-3 0  9994
2 49211  87.9029   6.6435 0002152  92.3379 267.7996 13.13472283200249
ONEWEB-0346             
1 49212U 21083AC  25299.67368175  .00000005  00000+0 -21209-4 0  9995
2 49212  87.9227  21.8469 0001254  88.9007 271.2269 13.18686196199208
ONEWEB-0348             
1 49213U 21083AD  25299.78321828  .00000104  00000+0  22359-3 0  9997
2 49213  87.9191 320.9933 0001902  75.1669 284.9675 13.20771901206001
ONEWEB-0350             
1 49214U 21083AE  25299.71254707  .00000361  00000+0  95279-3 0  9998
2 49214  87.9035   6.6233 0001965  91.3595 268.7759 13.13469480200282
ONEWEB-0351             
1 49215U 21083AF  25299.77676044  .00000105  00000+0  22575-3 0  9992
2 49215  87.9202 320.9864 0002637 104.2586 255.8840 13.20769383205963
ONEWEB-0352             
1 49216U 21083AG  25299.61688698 -.00000397  00000+0 -11231-2 0  9995
2 49216  87.9021   6.6701 0002179 107.0147 253.1221 13.13470293200360
ONEWEB-0354             
1 49217U 21083AH  25299.80216076  .00000050  00000+0  91320-4 0  9997
2 49217  87.9203 320.9802 0001959  85.0127 275.1229 13.20770301206005
ONEWEB-0355             
1 49218U 21083AJ  25299.72199669  .00000322  00000+0  84644-3 0  9999
2 49218  87.9031   6.6605 0002077  98.7602 261.3762 13.13468176200251
ONEWEB-0357             
1 49219U 21083AK  25299.79900399  .00000012  00000+0 -13306-5 0  9993
2 49219  87.9202 320.9782 0002054  93.3981 266.7387 13.20769944206002
ONEWEB-0332             
1 49279U 21090A   25299.61315713 -.00000017  00000+0 -80050-4 0  9993
2 49279  87.9008 336.2524 0001872 104.9924 255.1413 13.14503485196895
ONEWEB-0347             
1 49280U 21090B   25299.78952184  .00000055  00000+0  10211-3 0  9993
2 49280  87.9197 320.9931 0002056  99.8872 260.2493 13.20771832200236
ONEWEB-0349             
1 49281U 21090C   25299.82109221 -.00000118  00000+0 -32233-3 0  9995
2 49281  87.9193 320.9863 0001952  94.2976 265.8381 13.20769736199026
ONEWEB-0353             
1 49282U 21090D   25299.60521778 -.00000128  00000+0 -37914-3 0  9999
2 49282  87.9011 336.2363 0001822 103.8715 256.2617 13.14504378196895
ONEWEB-0356             
1 49283U 21090E   25299.81952029 -.00000069  00000+0 -20091-3 0  9992
2 49283  87.9192 320.9778 0000958  85.3612 274.7630 13.20770515199028
ONEWEB-0358             
1 49284U 21090F   25299.62223978  .00000064  00000+0  12492-3 0  9995
2 49284  87.9203 321.0151 0001760  90.3896 269.7439 13.20771280199729
ONEWEB-0359             
1 49285U 21090G   25299.77057963  .00000096  00000+0  20466-3 0  9996
2 49285  87.9191 320.9887 0001968  82.5929 277.5428 13.20769431199720
ONEWEB-0360             
1 49286U 21090H   25299.76110537  .00000090  00000+0  19014-3 0  9994
2 49286  87.9192 320.9996 0001948  90.2289 269.9068 13.20769657199035
ONEWEB-0361             
1 49287U 21090J   25299.81794417 -.00000073  00000+0 -21214-3 0  9994
2 49287  87.9190 320.9838 0001716  92.0529 268.0801 13.20771165199491
ONEWEB-0362             
1 49288U 21090K   25299.66151094 -.00000014  00000+0 -67178-4 0  9991
2 49288  87.9238 351.4507 0002144  99.0198 261.1177 13.19724731196113
ONEWEB-0363             
1 49289U 21090L   25299.75794804  .00000058  00000+0  11013-3 0  9996
2 49289  87.9193 320.9923 0001497  88.0072 272.1233 13.20770804199499
ONEWEB-0364             
1 49290U 21090M   25299.49279628  .00000031  00000+0  43130-4 0  9998
2 49290  87.9194 321.0706 0001705  93.4642 266.6687 13.20770369200599
ONEWEB-0365             
1 49291U 21090N   25299.67098937 -.00000045  00000+0 -14578-3 0  9991
2 49291  87.9250 351.4072 0001927 100.5442 259.5907 13.19724713195623
ONEWEB-0366             
1 49292U 21090P   25299.60205601 -.00000165  00000+0 -47868-3 0  9994
2 49292  87.9010 336.2553 0001795  94.5488 265.5847 13.14503493196871
ONEWEB-0367             
1 49293U 21090Q   25299.75639273  .00000053  00000+0  99234-4 0  9996
2 49293  87.9199 320.9895 0002041  95.4678 264.6688 13.20771398199015
ONEWEB-0368             
1 49294U 21090R   25299.80531774 -.00000009  00000+0 -54883-4 0  9994
2 49294  87.9192 321.0138 0001404 117.3142 242.8134 13.20770897200170
ONEWEB-0369             
1 49295U 21090S   25299.66624775 -.00000025  00000+0 -95284-4 0  9991
2 49295  87.9246 351.4388 0001908 100.7603 259.3744 13.19724011195619
ONEWEB-0370             
1 49296U 21090T   25299.76586344  .00000086  00000+0  17871-3 0  9992
2 49296  87.9194 320.9955 0002144  88.4029 271.7349 13.20771494199050
ONEWEB-0371             
1 49297U 21090U   25299.67414958 -.00000001  00000+0 -33961-4 0  9992
2 49297  87.9245 351.4246 0001972  99.4796 260.6559 13.19724517195655
ONEWEB-0372             
1 49298U 21090V   25299.60316036 -.00000006  00000+0 -47832-4 0  9991
2 49298  87.9192 321.0294 0001873  96.9295 263.2052 13.20770267199004
ONEWEB-0373             
1 49299U 21090W   25299.78163846  .00000033  00000+0  48464-4 0  9990
2 49299  87.9193 321.0072 0001853  90.3529 269.7817 13.20769588200216
ONEWEB-0374             
1 49300U 21090X   25299.81770647 -.00000143  00000+0 -41969-3 0  9996
2 49300  87.9016 336.1881 0001263  97.0659 263.0614 13.14501123196905
ONEWEB-0375             
1 49301U 21090Y   25299.76901223  .00000072  00000+0  14583-3 0  9998
2 49301  87.9192 320.9897 0001451  78.5615 281.5681 13.20770615199716
ONEWEB-0376             
1 49302U 21090Z   25299.67254779 -.00001005  00000+0 -25424-2 0  9990
2 49302  87.9255 351.4097 0001936 104.9726 255.1621 13.19728960195657
ONEWEB-0377             
1 49303U 21090AA  25299.75495073  .00000004  00000+0 -21154-4 0  9999
2 49303  87.9203 320.9898 0001924  87.3060 272.8293 13.20771346199702
ONEWEB-0378             
1 49304U 21090AB  25299.77704310  .00000104  00000+0  22482-3 0  9993
2 49304  87.9201 321.0003 0001705  91.1404 268.9925 13.20772044198975
ONEWEB-0379             
1 49305U 21090AC  25299.81295147 -.00000074  00000+0 -23529-3 0  9993
2 49305  87.9018 336.1974 0001738  98.2453 261.8874 13.14500962196901
ONEWEB-0380             
1 49306U 21090AD  25299.66941013  .00000004  00000+0 -22723-4 0  9995
2 49306  87.9243 351.4352 0001790  91.6222 268.5115 13.19724692195624
ONEWEB-0381             
1 49307U 21090AE  25299.82741529 -.00000058  00000+0 -17569-3 0  9995
2 49307  87.9190 320.9813 0001678  87.1861 272.9464 13.20770816199028
ONEWEB-0382             
1 49308U 21090AF  25299.58751448 -.00000020  00000+0 -79977-4 0  9991
2 49308  87.9200 321.0216 0001553  90.9299 269.2012 13.20769946198983
ONEWEB-0383             
1 49309U 21090AG  25299.80662549  .00000093  00000+0  21690-3 0  9996
2 49309  87.9023 336.1819 0001661  98.6775 261.4543 13.14504093196936
ONEWEB-0384             
1 49310U 21090AH  25299.80911172 -.00000007  00000+0 -49307-4 0  9990
2 49310  87.9214 321.0089 0001312  95.5552 264.5731 13.20796317199029
ONEWEB-0385             
1 49311U 21090AJ  25299.80689686 -.00000009  00000+0 -54040-4 0  9995
2 49311  87.9190 320.9870 0001696  92.6518 267.4810 13.20771580198994
ONEWEB-0386             
1 49312U 21090AK  25299.82425294  .00000027  00000+0  35563-4 0  9998
2 49312  87.9202 320.9634 0001593  93.5400 266.5916 13.20771410199016
ONEWEB-0387             
1 49313U 21090AL  25299.80846801 -.00000078  00000+0 -22481-3 0  9990
2 49313  87.9190 321.0162 0001805  83.2912 276.8427 13.20769750199016
ONEWEB-0388             
1 49314U 21090AM  25299.66467074  .00000010  00000+0 -67717-5 0  9994
2 49314  87.9237 351.4409 0001712  97.5550 262.5777 13.19724215195610
